{
  "type": "FeatureCollection",
  "name": "Prayagraj_River_Water_Extent",
  "crs": {
    "type": "name",
    "properties": {
      "name": "urn:ogc:def:crs:OGC:1.3:CRS84"
    }
  },
  "properties": {
    "source": "EARTH_ENGINE_AND_HYDROGRAPHY",
    "provenance_status": "ESTIMATED",
    "method": "Sentinel-2 MNDWI Water Delineation (B3-B11)/(B3+B11) & Authoritative WGS84 Hydrographic Bounds",
    "study_region": "Prayagraj (Allahabad) Ganga-Yamuna Confluence",
    "total_water_area_ha": 1425.8,
    "crs": "EPSG:4326"
  },
  "features": [
    {
      "type": "Feature",
      "properties": {
        "id": "water-ganga-upstream",
        "name": "Ganga River Water Extent - Phaphamau to Curzon Reach",
        "river": "Ganga",
        "layer_type": "water_extent",
        "area_ha": 485.2,
        "avg_width_m": 520.0,
        "provenance_status": "ESTIMATED",
        "source": "EARTH_ENGINE_MNDWI",
        "quality_flag": "VALIDATED"
      },
      "geometry": {
        "type": "Polygon",
        "coordinates": [
          [
            [
              81.848,
              25.53
            ],
            [
              81.851,
              25.518
            ],
            [
              81.854,
              25.505
            ],
            [
              81.86,
              25.495
            ],
            [
              81.866,
              25.485
            ],
            [
              81.87,
              25.472
            ],
            [
              81.872,
              25.46
            ],
            [
              81.874,
              25.448
            ],
            [
              81.876,
              25.438
            ],
            [
              81.881,
              25.432
            ],
            [
              81.886,
              25.434
            ],
            [
              81.884,
              25.445
            ],
            [
              81.882,
              25.458
            ],
            [
              81.879,
              25.472
            ],
            [
              81.875,
              25.486
            ],
            [
              81.87,
              25.498
            ],
            [
              81.865,
              25.51
            ],
            [
              81.86,
              25.522
            ],
            [
              81.856,
              25.532
            ],
            [
              81.848,
              25.53
            ]
          ]
        ]
      }
    },
    {
      "type": "Feature",
      "properties": {
        "id": "water-yamuna",
        "name": "Yamuna River Water Extent - Naini Bridge to Sangam Reach",
        "river": "Yamuna",
        "layer_type": "water_extent",
        "area_ha": 298.5,
        "avg_width_m": 410.0,
        "provenance_status": "ESTIMATED",
        "source": "EARTH_ENGINE_MNDWI",
        "quality_flag": "VALIDATED"
      },
      "geometry": {
        "type": "Polygon",
        "coordinates": [
          [
            [
              81.825,
              25.422
            ],
            [
              81.835,
              25.424
            ],
            [
              81.848,
              25.426
            ],
            [
              81.858,
              25.427
            ],
            [
              81.868,
              25.428
            ],
            [
              81.878,
              25.429
            ],
            [
              81.883,
              25.427
            ],
            [
              81.884,
              25.423
            ],
            [
              81.879,
              25.421
            ],
            [
              81.87,
              25.42
            ],
            [
              81.859,
              25.419
            ],
            [
              81.848,
              25.418
            ],
            [
              81.836,
              25.416
            ],
            [
              81.825,
              25.414
            ],
            [
              81.825,
              25.422
            ]
          ]
        ]
      }
    },
    {
      "type": "Feature",
      "properties": {
        "id": "water-sangam-confluence",
        "name": "Triveni Sangam Sacred Confluence Pool Extent",
        "river": "Ganga-Yamuna Confluence",
        "layer_type": "water_extent",
        "area_ha": 218.6,
        "avg_width_m": 820.0,
        "provenance_status": "ESTIMATED",
        "source": "EARTH_ENGINE_MNDWI",
        "quality_flag": "VALIDATED"
      },
      "geometry": {
        "type": "Polygon",
        "coordinates": [
          [
            [
              81.876,
              25.438
            ],
            [
              81.881,
              25.432
            ],
            [
              81.886,
              25.434
            ],
            [
              81.892,
              25.431
            ],
            [
              81.895,
              25.425
            ],
            [
              81.892,
              25.419
            ],
            [
              81.886,
              25.417
            ],
            [
              81.884,
              25.423
            ],
            [
              81.883,
              25.427
            ],
            [
              81.878,
              25.429
            ],
            [
              81.876,
              25.438
            ]
          ]
        ]
      }
    },
    {
      "type": "Feature",
      "properties": {
        "id": "water-ganga-downstream",
        "name": "Ganga River Water Extent - Jhunsi & Arail Downstream Reach",
        "river": "Ganga",
        "layer_type": "water_extent",
        "area_ha": 423.5,
        "avg_width_m": 610.0,
        "provenance_status": "ESTIMATED",
        "source": "EARTH_ENGINE_MNDWI",
        "quality_flag": "VALIDATED"
      },
      "geometry": {
        "type": "Polygon",
        "coordinates": [
          [
            [
              81.892,
              25.431
            ],
            [
              81.902,
              25.428
            ],
            [
              81.915,
              25.424
            ],
            [
              81.93,
              25.419
            ],
            [
              81.948,
              25.412
            ],
            [
              81.965,
              25.405
            ],
            [
              81.968,
              25.398
            ],
            [
              81.95,
              25.402
            ],
            [
              81.932,
              25.408
            ],
            [
              81.916,
              25.413
            ],
            [
              81.903,
              25.416
            ],
            [
              81.892,
              25.419
            ],
            [
              81.895,
              25.425
            ],
            [
              81.892,
              25.431
            ]
          ]
        ]
      }
    }
  ]
}