{
  "type": "FeatureCollection",
  "name": "Prayagraj_River_Network",
  "crs": {
    "type": "name",
    "properties": {
      "name": "urn:ogc:def:crs:OGC:1.3:CRS84"
    }
  },
  "features": [
    {
      "type": "Feature",
      "properties": {
        "id": "segment-ganga-upstream",
        "name": "Ganga River - Upstream Phaphamau Reach",
        "river": "Ganga",
        "length_km": 14.8,
        "avg_width_m": 480,
        "flow_type": "Mainstream Perennial",
        "monitoring_priority": "High"
      },
      "geometry": {
        "type": "LineString",
        "coordinates": [
          [81.7610, 25.5680],
          [81.7820, 25.5450],
          [81.8100, 25.5230],
          [81.8410, 25.5020],
          [81.8650, 25.4850],
          [81.8820, 25.4610]
        ]
      }
    },
    {
      "type": "Feature",
      "properties": {
        "id": "segment-ganga-sangam",
        "name": "Ganga River - Sangam Confluence Reach",
        "river": "Ganga",
        "length_km": 8.5,
        "avg_width_m": 720,
        "flow_type": "Sacred Confluence & Sedimentation Zone",
        "monitoring_priority": "Critical"
      },
      "geometry": {
        "type": "LineString",
        "coordinates": [
          [81.8820, 25.4610],
          [81.8885, 25.4380],
          [81.8845, 25.4260],
          [81.8970, 25.4190],
          [81.9150, 25.4150]
        ]
      }
    },
    {
      "type": "Feature",
      "properties": {
        "id": "segment-yamuna-reach",
        "name": "Yamuna River - Naini to Sangam Reach",
        "river": "Yamuna",
        "length_km": 9.2,
        "avg_width_m": 390,
        "flow_type": "Tributary Inflow",
        "monitoring_priority": "High"
      },
      "geometry": {
        "type": "LineString",
        "coordinates": [
          [81.8180, 25.4120],
          [81.8420, 25.4180],
          [81.8650, 25.4230],
          [81.8845, 25.4260]
        ]
      }
    },
    {
      "type": "Feature",
      "properties": {
        "id": "segment-ganga-downstream",
        "name": "Ganga River - Downstream Jhunsi / Arail Reach",
        "river": "Ganga",
        "length_km": 12.3,
        "avg_width_m": 610,
        "flow_type": "Downstream Meandering Channel",
        "monitoring_priority": "Moderate"
      },
      "geometry": {
        "type": "LineString",
        "coordinates": [
          [81.9150, 25.4150],
          [81.9420, 25.4110],
          [81.9700, 25.3980],
          [81.9980, 25.3850]
        ]
      }
    }
  ]
}
